STARLINK-34830
1 65405U 25192B   26060.85504782  .00067456  00000+0  16823-2 0  9991
2 65405  53.1573 268.8189 0001373  90.5750 269.5412 15.39605383 28190
STARLINK-35036
1 65406U 25192C   26060.94780552  .00050279  00000+0  12584-2 0  9998
2 65406  53.1579 268.6882 0000481  55.9814 304.1236 15.39625948 28199
STARLINK-35035
1 65407U 25192D   26061.00807780  .00039224  00000+0  98565-3 0  9991
2 65407  53.1575 268.3549 0001031  94.7914 265.3209 15.39616470 28207
STARLINK-35008
1 65408U 25192E   26061.00343087  .00028989  00000+0  73157-3 0  9993
2 65408  53.1573 268.3246 0001029  84.1278 275.9844 15.39635972 28203
STARLINK-35022
1 65409U 25192F   26060.85967020  .00056745  00000+0  14174-2 0  9999
2 65409  53.1572 268.8481 0001131  87.4979 272.6155 15.39635002 28187
STARLINK-35024
1 65410U 25192G   26060.99414439  .00051012  00000+0  12764-2 0  9992
2 65410  53.1574 268.2657 0001156  92.7592 267.3545 15.39628758 28204
STARLINK-34983
1 65411U 25192H   26060.98021491  .00042921  00000+0  10766-2 0  9993
2 65411  53.1579 268.1769 0001227  86.5003 273.6142 15.39630612 28205
STARLINK-34992
1 65412U 25192J   26060.97556892  .00043064  00000+0  10801-2 0  9990
2 65412  53.1584 268.1482 0001263  83.8558 276.2590 15.39632155 28186
STARLINK-34997
1 65418U 25192Q   26061.00774462  .00023674  00000+0  59984-3 0  9997
2 65418  53.1574 268.3490 0001189  79.0882 281.0256 15.39627618 28200
STARLINK-35085
1 65419U 25192R   26060.93818399  .00027804  00000+0  70255-3 0  9990
2 65419  53.1572 268.6259 0000989  91.2162 268.8956 15.39620102 28198
STARLINK-35146
1 65421U 25192T   26060.85933909  .00038801  00000+0  97486-3 0  9993
2 65421  53.1576 268.8427 0000951  91.9109 268.2005 15.39626397 28170
STARLINK-34837
1 65423U 25192V   26060.99845794  .00044817  00000+0  11233-2 0  9993
2 65423  53.1564 268.2898 0001081  88.4812 271.6316 15.39635442 28200
STARLINK-34670
1 65424U 25192W   26060.98452373  .00047947  00000+0  12006-2 0  9996
2 65424  53.1576 268.2013 0001119  94.1218 265.9915 15.39633561 28200
STARLINK-34883
1 65426U 25192Y   26060.84540889  .00033181  00000+0  83570-3 0  9993
2 65426  53.1577 268.7526 0001101 110.3973 249.7150 15.39627325 28175
STARLINK-34916
1 65427U 25192Z   26060.97988397  .00041970  00000+0  10531-2 0  9999
2 65427  53.1580 268.1707 0001194  86.4588 273.6553 15.39629560 28202
STARLINK-35137
1 65686U 25212L   26061.13056977  .00058309  00000+0  14564-2 0  9992
2 65686  53.1618  10.9781 0001236 100.3870 259.7274 15.39623763 26171
STARLINK-35060
1 65693U 25212T   26061.05172370  .00020114  00000+0  51154-3 0  9997
2 65693  53.1611  11.1940 0001078  52.4337 307.6765 15.39618090 26211
